<?xml version="1.0" encoding="UTF-8"?>
<ndm xmlns:xsi="http://www.w3.org/2001/XMLSchema-instance" xsi:noNamespaceSchemaLocation="https://sanaregistry.org/r/ndmxml_unqualified/ndmxml-2.0.0-master-2.0.xsd">
<omm id="CCSDS_OMM_VERS" version="2.0">
<header><CREATION_DATE/><ORIGINATOR/></header><body><segment><metadata><OBJECT_NAME>ORBCOMM FM33</OBJECT_NAME><OBJECT_ID>1999-065D</OBJECT_ID><CENTER_NAME>EARTH</CENTER_NAME><REF_FRAME>TEME</REF_FRAME><TIME_SYSTEM>UTC</TIME_SYSTEM><MEAN_ELEMENT_THEORY>SGP4</MEAN_ELEMENT_THEORY></metadata><data><meanElements><EPOCH>2025-10-30T02:06:18.311616</EPOCH><MEAN_MOTION>14.40351010</MEAN_MOTION><ECCENTRICITY>.0007077</ECCENTRICITY><INCLINATION>45.0284</INCLINATION><RA_OF_ASC_NODE>77.4482</RA_OF_ASC_NODE><ARG_OF_PERICENTER>24.0815</ARG_OF_PERICENTER><MEAN_ANOMALY>336.0364</MEAN_ANOMALY></meanElements><tleParameters><EPHEMERIS_TYPE>0</EPHEMERIS_TYPE><CLASSIFICATION_TYPE>U</CLASSIFICATION_TYPE><NORAD_CAT_ID>25983</NORAD_CAT_ID><ELEMENT_SET_NO>999</ELEMENT_SET_NO><REV_AT_EPOCH>35551</REV_AT_EPOCH><BSTAR>.58813135E-3</BSTAR><MEAN_MOTION_DOT>.1741E-4</MEAN_MOTION_DOT><MEAN_MOTION_DDOT>0</MEAN_MOTION_DDOT></tleParameters></data></segment></body></omm>
<omm id="CCSDS_OMM_VERS" version="2.0">
<header><CREATION_DATE/><ORIGINATOR/></header><body><segment><metadata><OBJECT_NAME>ORBCOMM FM36</OBJECT_NAME><OBJECT_ID>1999-065E</OBJECT_ID><CENTER_NAME>EARTH</CENTER_NAME><REF_FRAME>TEME</REF_FRAME><TIME_SYSTEM>UTC</TIME_SYSTEM><MEAN_ELEMENT_THEORY>SGP4</MEAN_ELEMENT_THEORY></metadata><data><meanElements><EPOCH>2025-10-30T03:46:49.828224</EPOCH><MEAN_MOTION>14.38518975</MEAN_MOTION><ECCENTRICITY>.00025118</ECCENTRICITY><INCLINATION>45.0377</INCLINATION><RA_OF_ASC_NODE>171.1028</RA_OF_ASC_NODE><ARG_OF_PERICENTER>278.3083</ARG_OF_PERICENTER><MEAN_ANOMALY>81.7481</MEAN_ANOMALY></meanElements><tleParameters><EPHEMERIS_TYPE>0</EPHEMERIS_TYPE><CLASSIFICATION_TYPE>U</CLASSIFICATION_TYPE><NORAD_CAT_ID>25984</NORAD_CAT_ID><ELEMENT_SET_NO>999</ELEMENT_SET_NO><REV_AT_EPOCH>35385</REV_AT_EPOCH><BSTAR>.52379185E-3</BSTAR><MEAN_MOTION_DOT>.1473E-4</MEAN_MOTION_DOT><MEAN_MOTION_DDOT>0</MEAN_MOTION_DDOT></tleParameters></data></segment></body></omm>
<omm id="CCSDS_OMM_VERS" version="2.0">
<header><CREATION_DATE/><ORIGINATOR/></header><body><segment><metadata><OBJECT_NAME>ORBCOMM FM35</OBJECT_NAME><OBJECT_ID>1999-065F</OBJECT_ID><CENTER_NAME>EARTH</CENTER_NAME><REF_FRAME>TEME</REF_FRAME><TIME_SYSTEM>UTC</TIME_SYSTEM><MEAN_ELEMENT_THEORY>SGP4</MEAN_ELEMENT_THEORY></metadata><data><meanElements><EPOCH>2025-10-29T22:58:55.507296</EPOCH><MEAN_MOTION>14.37448148</MEAN_MOTION><ECCENTRICITY>.00046112</ECCENTRICITY><INCLINATION>45.0383</INCLINATION><RA_OF_ASC_NODE>178.1713</RA_OF_ASC_NODE><ARG_OF_PERICENTER>356.3368</ARG_OF_PERICENTER><MEAN_ANOMALY>3.7447</MEAN_ANOMALY></meanElements><tleParameters><EPHEMERIS_TYPE>0</EPHEMERIS_TYPE><CLASSIFICATION_TYPE>U</CLASSIFICATION_TYPE><NORAD_CAT_ID>25985</NORAD_CAT_ID><ELEMENT_SET_NO>999</ELEMENT_SET_NO><REV_AT_EPOCH>35417</REV_AT_EPOCH><BSTAR>.46554109E-3</BSTAR><MEAN_MOTION_DOT>.1263E-4</MEAN_MOTION_DOT><MEAN_MOTION_DDOT>0</MEAN_MOTION_DDOT></tleParameters></data></segment></body></omm>
<omm id="CCSDS_OMM_VERS" version="2.0">
<header><CREATION_DATE/><ORIGINATOR/></header><body><segment><metadata><OBJECT_NAME>ORBCOMM FM34</OBJECT_NAME><OBJECT_ID>1999-065G</OBJECT_ID><CENTER_NAME>EARTH</CENTER_NAME><REF_FRAME>TEME</REF_FRAME><TIME_SYSTEM>UTC</TIME_SYSTEM><MEAN_ELEMENT_THEORY>SGP4</MEAN_ELEMENT_THEORY></metadata><data><meanElements><EPOCH>2025-10-29T23:49:18.213888</EPOCH><MEAN_MOTION>14.37422297</MEAN_MOTION><ECCENTRICITY>.0004215</ECCENTRICITY><INCLINATION>45.0377</INCLINATION><RA_OF_ASC_NODE>178.4630</RA_OF_ASC_NODE><ARG_OF_PERICENTER>313.5355</ARG_OF_PERICENTER><MEAN_ANOMALY>46.5143</MEAN_ANOMALY></meanElements><tleParameters><EPHEMERIS_TYPE>0</EPHEMERIS_TYPE><CLASSIFICATION_TYPE>U</CLASSIFICATION_TYPE><NORAD_CAT_ID>25986</NORAD_CAT_ID><ELEMENT_SET_NO>999</ELEMENT_SET_NO><REV_AT_EPOCH>35429</REV_AT_EPOCH><BSTAR>.39697754E-3</BSTAR><MEAN_MOTION_DOT>.1056E-4</MEAN_MOTION_DOT><MEAN_MOTION_DDOT>0</MEAN_MOTION_DDOT></tleParameters></data></segment></body></omm>
<omm id="CCSDS_OMM_VERS" version="2.0">
<header><CREATION_DATE/><ORIGINATOR/></header><body><segment><metadata><OBJECT_NAME>ORBCOMM FM38</OBJECT_NAME><OBJECT_ID>2008-031A</OBJECT_ID><CENTER_NAME>EARTH</CENTER_NAME><REF_FRAME>TEME</REF_FRAME><TIME_SYSTEM>UTC</TIME_SYSTEM><MEAN_ELEMENT_THEORY>SGP4</MEAN_ELEMENT_THEORY></metadata><data><meanElements><EPOCH>2025-10-29T23:01:36.522336</EPOCH><MEAN_MOTION>14.81967080</MEAN_MOTION><ECCENTRICITY>.0005619</ECCENTRICITY><INCLINATION>48.4407</INCLINATION><RA_OF_ASC_NODE>32.7082</RA_OF_ASC_NODE><ARG_OF_PERICENTER>263.0360</ARG_OF_PERICENTER><MEAN_ANOMALY>96.9916</MEAN_ANOMALY></meanElements><tleParameters><EPHEMERIS_TYPE>0</EPHEMERIS_TYPE><CLASSIFICATION_TYPE>U</CLASSIFICATION_TYPE><NORAD_CAT_ID>33060</NORAD_CAT_ID><ELEMENT_SET_NO>999</ELEMENT_SET_NO><REV_AT_EPOCH>93473</REV_AT_EPOCH><BSTAR>.41031224E-3</BSTAR><MEAN_MOTION_DOT>.3074E-4</MEAN_MOTION_DOT><MEAN_MOTION_DDOT>0</MEAN_MOTION_DDOT></tleParameters></data></segment></body></omm>
<omm id="CCSDS_OMM_VERS" version="2.0">
<header><CREATION_DATE/><ORIGINATOR/></header><body><segment><metadata><OBJECT_NAME>ORBCOMM FM41</OBJECT_NAME><OBJECT_ID>2008-031B</OBJECT_ID><CENTER_NAME>EARTH</CENTER_NAME><REF_FRAME>TEME</REF_FRAME><TIME_SYSTEM>UTC</TIME_SYSTEM><MEAN_ELEMENT_THEORY>SGP4</MEAN_ELEMENT_THEORY></metadata><data><meanElements><EPOCH>2025-10-30T06:42:49.908384</EPOCH><MEAN_MOTION>14.81533557</MEAN_MOTION><ECCENTRICITY>.00047693</ECCENTRICITY><INCLINATION>48.4440</INCLINATION><RA_OF_ASC_NODE>39.4333</RA_OF_ASC_NODE><ARG_OF_PERICENTER>249.9365</ARG_OF_PERICENTER><MEAN_ANOMALY>156.2205</MEAN_ANOMALY></meanElements><tleParameters><EPHEMERIS_TYPE>0</EPHEMERIS_TYPE><CLASSIFICATION_TYPE>U</CLASSIFICATION_TYPE><NORAD_CAT_ID>33061</NORAD_CAT_ID><ELEMENT_SET_NO>999</ELEMENT_SET_NO><REV_AT_EPOCH>93426</REV_AT_EPOCH><BSTAR>.41344143E-3</BSTAR><MEAN_MOTION_DOT>.3066E-4</MEAN_MOTION_DOT><MEAN_MOTION_DDOT>0</MEAN_MOTION_DDOT></tleParameters></data></segment></body></omm>
<omm id="CCSDS_OMM_VERS" version="2.0">
<header><CREATION_DATE/><ORIGINATOR/></header><body><segment><metadata><OBJECT_NAME>ORBCOMM FM29</OBJECT_NAME><OBJECT_ID>2008-031C</OBJECT_ID><CENTER_NAME>EARTH</CENTER_NAME><REF_FRAME>TEME</REF_FRAME><TIME_SYSTEM>UTC</TIME_SYSTEM><MEAN_ELEMENT_THEORY>SGP4</MEAN_ELEMENT_THEORY></metadata><data><meanElements><EPOCH>2025-10-29T17:37:32.218752</EPOCH><MEAN_MOTION>14.81657337</MEAN_MOTION><ECCENTRICITY>.00064613</ECCENTRICITY><INCLINATION>48.4390</INCLINATION><RA_OF_ASC_NODE>49.6680</RA_OF_ASC_NODE><ARG_OF_PERICENTER>246.1815</ARG_OF_PERICENTER><MEAN_ANOMALY>267.6218</MEAN_ANOMALY></meanElements><tleParameters><EPHEMERIS_TYPE>0</EPHEMERIS_TYPE><CLASSIFICATION_TYPE>U</CLASSIFICATION_TYPE><NORAD_CAT_ID>33062</NORAD_CAT_ID><ELEMENT_SET_NO>999</ELEMENT_SET_NO><REV_AT_EPOCH>93409</REV_AT_EPOCH><BSTAR>.42722468E-3</BSTAR><MEAN_MOTION_DOT>.3185E-4</MEAN_MOTION_DOT><MEAN_MOTION_DDOT>0</MEAN_MOTION_DDOT></tleParameters></data></segment></body></omm>
<omm id="CCSDS_OMM_VERS" version="2.0">
<header><CREATION_DATE/><ORIGINATOR/></header><body><segment><metadata><OBJECT_NAME>ORBCOMM FM39</OBJECT_NAME><OBJECT_ID>2008-031D</OBJECT_ID><CENTER_NAME>EARTH</CENTER_NAME><REF_FRAME>TEME</REF_FRAME><TIME_SYSTEM>UTC</TIME_SYSTEM><MEAN_ELEMENT_THEORY>SGP4</MEAN_ELEMENT_THEORY></metadata><data><meanElements><EPOCH>2025-10-29T17:39:31.534560</EPOCH><MEAN_MOTION>14.80133275</MEAN_MOTION><ECCENTRICITY>.00071724</ECCENTRICITY><INCLINATION>48.4394</INCLINATION><RA_OF_ASC_NODE>75.4403</RA_OF_ASC_NODE><ARG_OF_PERICENTER>217.9268</ARG_OF_PERICENTER><MEAN_ANOMALY>142.1142</MEAN_ANOMALY></meanElements><tleParameters><EPHEMERIS_TYPE>0</EPHEMERIS_TYPE><CLASSIFICATION_TYPE>U</CLASSIFICATION_TYPE><NORAD_CAT_ID>33063</NORAD_CAT_ID><ELEMENT_SET_NO>999</ELEMENT_SET_NO><REV_AT_EPOCH>93372</REV_AT_EPOCH><BSTAR>.39374181E-3</BSTAR><MEAN_MOTION_DOT>.2809E-4</MEAN_MOTION_DOT><MEAN_MOTION_DDOT>0</MEAN_MOTION_DDOT></tleParameters></data></segment></body></omm>

</ndm>
