[{"norad_id":"25983","company":"ORBCOMM","tle_line2":"2 25983  45.0284  77.4482 0007077  24.0815 336.0364 14.40351010355518","launch_date":"1999-12-04","type":"LEO","tle_line1":"1 25983U 99065D   25303.08771194  .00001741  00000+0  58813-3 0  9996","satellite_name":"ORBCOMM FM33"},{"norad_id":"25984","company":"ORBCOMM","tle_line2":"2 25984  45.0377 171.1028 0002511 278.3083  81.7481 14.38518975353850","launch_date":"1999-12-04","type":"LEO","tle_line1":"1 25984U 99065E   25303.15752116  .00001473  00000+0  52379-3 0  9991","satellite_name":"ORBCOMM FM36"},{"norad_id":"25985","company":"ORBCOMM","tle_line2":"2 25985  45.0383 178.1713 0004611 356.3368   3.7447 14.37448148354177","launch_date":"1999-12-04","type":"LEO","tle_line1":"1 25985U 99065F   25302.95758689  .00001263  00000+0  46554-3 0  9995","satellite_name":"ORBCOMM FM35"},{"norad_id":"25986","company":"ORBCOMM","tle_line2":"2 25986  45.0377 178.4630 0004215 313.5355  46.5143 14.37422297354291","launch_date":"1999-12-04","type":"LEO","tle_line1":"1 25986U 99065G   25302.99257192  .00001056  00000+0  39698-3 0  9994","satellite_name":"ORBCOMM FM34"},{"norad_id":"33060","company":"ORBCOMM","tle_line2":"2 33060  48.4407  32.7082 0005619 263.0360  96.9916 14.81967080934734","launch_date":"2008-06-19","type":"LEO","tle_line1":"1 33060U 08031A   25302.95945049  .00003074  00000+0  41031-3 0  9996","satellite_name":"ORBCOMM FM38"},{"norad_id":"33061","company":"ORBCOMM","tle_line2":"2 33061  48.4440  39.4333 0004769 249.9365 156.2205 14.81533557934265","launch_date":"2008-06-19","type":"LEO","tle_line1":"1 33061U 08031B   25303.27974431  .00003066  00000+0  41344-3 0  9998","satellite_name":"ORBCOMM FM41"},{"norad_id":"33062","company":"ORBCOMM","tle_line2":"2 33062  48.4390  49.6680 0006461 246.1815 267.6218 14.81657337934093","launch_date":"2008-06-19","type":"LEO","tle_line1":"1 33062U 08031C   25302.73440068  .00003185  00000+0  42722-3 0  9996","satellite_name":"ORBCOMM FM29"},{"norad_id":"33063","company":"ORBCOMM","tle_line2":"2 33063  48.4394  75.4403 0007172 217.9268 142.1142 14.80133275933727","launch_date":"2008-06-19","type":"LEO","tle_line1":"1 33063U 08031D   25302.73578165  .00002809  00000+0  39374-3 0  9998","satellite_name":"ORBCOMM FM39"}]